start=new Date('2022-02-07T00:00:00.000Z').valueOf();
sats=[{"MEAN_MOTION":"15.07525386","BSTAR":"0.00014332000000","LAUNCH_DATE":"2021-03-14","INCLINATION":"53.0550","DECAY_DATE":null,"CENTER_NAME":"EARTH","OBJECT_ID":"2021-021AJ","MEAN_ELEMENT_THEORY":"SGP4","ELEMENT_SET_NO":"999","MEAN_ANOMALY":"271.6202","TIME_SYSTEM":"UTC","PERIAPSIS":"542.774","CLASSIFICATION_TYPE":"U","GP_ID":"195442526","REF_FRAME":"TEME","SEMIMAJOR_AXIS":"6921.902","NORAD_CAT_ID":"47892","RA_OF_ASC_NODE":"139.1664","RCS_SIZE":"LARGE","SITE":"AFETR","MEAN_MOTION_DOT":"0.00001917","OBJECT_NAME":"STARLINK-2352","FILE":"3293822","ECCENTRICITY":"0.00014340","COUNTRY_CODE":"US","TLE_LINE1":"1 47892U 21021AJ  22037.74710314  .00001917  00000-0  14332-3 0  9991","REV_AT_EPOCH":"5118","MEAN_MOTION_DDOT":"0.0000000000000","ARG_OF_PERICENTER":"88.4951","PERIOD":"95.521","OBJECT_TYPE":"PAYLOAD","EPOCH":"2022-02-06T17:55:49.711296","TLE_LINE2":"2 47892  53.0550 139.1664 0001434  88.4951 271.6202 15.07525386 51184","EPHEMERIS_TYPE":"0","APOAPSIS":"544.759"},{"OBJECT_ID":"2021-021AL","CENTER_NAME":"EARTH","MEAN_ELEMENT_THEORY":"SGP4","DECAY_DATE":null,"MEAN_MOTION":"15.06377636","LAUNCH_DATE":"2021-03-14","BSTAR":"-0.00018082000000","INCLINATION":"53.0537","SEMIMAJOR_AXIS":"6925.417","NORAD_CAT_ID":"47894","CLASSIFICATION_TYPE":"U","REF_FRAME":"TEME","GP_ID":"195443278","MEAN_ANOMALY":"284.5537","ELEMENT_SET_NO":"999","PERIAPSIS":"546.310","TIME_SYSTEM":"UTC","ECCENTRICITY":"0.00014040","RCS_SIZE":"LARGE","RA_OF_ASC_NODE":"129.1743","FILE":"3293822","SITE":"AFETR","MEAN_MOTION_DOT":"-0.00002972","OBJECT_NAME":"STARLINK-2354","OBJECT_TYPE":"PAYLOAD","APOAPSIS":"548.254","EPOCH":"2022-02-06T18:08:42.570528","TLE_LINE2":"2 47894  53.0537 129.1743 0001404  75.5608 284.5537 15.06377636 51277","EPHEMERIS_TYPE":"0","REV_AT_EPOCH":"5127","MEAN_MOTION_DDOT":"0.0000000000000","TLE_LINE1":"1 47894U 21021AL  22037.75604827 -.00002972  00000-0 -18082-3 0  9995","COUNTRY_CODE":"US","PERIOD":"95.594","ARG_OF_PERICENTER":"75.5608"},{"INCLINATION":"53.0548","LAUNCH_DATE":"2021-03-14","BSTAR":"0.00027104000000","MEAN_MOTION":"15.06387157","DECAY_DATE":null,"OBJECT_ID":"2021-021AM","CENTER_NAME":"EARTH","MEAN_ELEMENT_THEORY":"SGP4","ELEMENT_SET_NO":"999","MEAN_ANOMALY":"264.8595","TIME_SYSTEM":"UTC","PERIAPSIS":"546.463","GP_ID":"195411407","REF_FRAME":"TEME","CLASSIFICATION_TYPE":"U","NORAD_CAT_ID":"47895","SEMIMAJOR_AXIS":"6925.388","RA_OF_ASC_NODE":"130.0245","RCS_SIZE":"LARGE","SITE":"AFETR","MEAN_MOTION_DOT":"0.00003757","OBJECT_NAME":"STARLINK-2355","FILE":"3293555","ECCENTRICITY":"0.00011410","TLE_LINE1":"1 47895U 21021AM  22037.56805509  .00003757  00000-0  27104-3 0  9990","COUNTRY_CODE":"US","MEAN_MOTION_DDOT":"0.0000000000000","REV_AT_EPOCH":"5127","ARG_OF_PERICENTER":"95.2524","PERIOD":"95.593","OBJECT_TYPE":"PAYLOAD","EPHEMERIS_TYPE":"0","EPOCH":"2022-02-06T13:37:59.959776","TLE_LINE2":"2 47895  53.0548 130.0245 0001141  95.2524 264.8595 15.06387157 51276","APOAPSIS":"548.043"},{"TIME_SYSTEM":"UTC","PERIAPSIS":"546.351","MEAN_ANOMALY":"295.4694","ELEMENT_SET_NO":"999","SEMIMAJOR_AXIS":"6925.418","NORAD_CAT_ID":"47896","CLASSIFICATION_TYPE":"U","GP_ID":"195442776","REF_FRAME":"TEME","DECAY_DATE":null,"MEAN_MOTION":"15.06377245","INCLINATION":"53.0568","LAUNCH_DATE":"2021-03-14","BSTAR":"0.00007740500000","MEAN_ELEMENT_THEORY":"SGP4","OBJECT_ID":"2021-021AN","CENTER_NAME":"EARTH","PERIOD":"95.594","ARG_OF_PERICENTER":"64.6434","REV_AT_EPOCH":"5106","MEAN_MOTION_DDOT":"0.0000000000000","TLE_LINE1":"1 47896U 21021AN  22037.76019951  .00000871  00000-0  77405-4 0  9995","COUNTRY_CODE":"US","APOAPSIS":"548.215","EPOCH":"2022-02-06T18:14:41.237664","TLE_LINE2":"2 47896  53.0568 144.1535 0001346  64.6434 295.4694 15.06377245 51068","EPHEMERIS_TYPE":"0","OBJECT_TYPE":"PAYLOAD","FILE":"3293822","SITE":"AFETR","OBJECT_NAME":"STARLINK-2356","MEAN_MOTION_DOT":"0.00000871","RCS_SIZE":"LARGE","RA_OF_ASC_NODE":"144.1535","ECCENTRICITY":"0.00013460"},{"ECCENTRICITY":"0.00016850","FILE":"3293586","SITE":"AFETR","OBJECT_NAME":"STARLINK-2357","MEAN_MOTION_DOT":"-0.00003039","RCS_SIZE":"LARGE","RA_OF_ASC_NODE":"130.0223","APOAPSIS":"548.436","TLE_LINE2":"2 47897  53.0530 130.0223 0001685  63.3317 296.7845 15.06381873 50814","EPOCH":"2022-02-06T13:36:39.934368","EPHEMERIS_TYPE":"0","OBJECT_TYPE":"PAYLOAD","PERIOD":"95.593","ARG_OF_PERICENTER":"63.3317","REV_AT_EPOCH":"5081","MEAN_MOTION_DDOT":"0.0000000000000","COUNTRY_CODE":"US","TLE_LINE1":"1 47897U 21021AP  22037.56712887 -.00003039  00000-0 -18532-3 0  9998","CENTER_NAME":"EARTH","OBJECT_ID":"2021-021AP","MEAN_ELEMENT_THEORY":"SGP4","DECAY_DATE":null,"MEAN_MOTION":"15.06381873","LAUNCH_DATE":"2021-03-14","INCLINATION":"53.0530","BSTAR":"-0.00018532000000","SEMIMAJOR_AXIS":"6925.404","NORAD_CAT_ID":"47897","CLASSIFICATION_TYPE":"U","REF_FRAME":"TEME","GP_ID":"195415922","TIME_SYSTEM":"UTC","PERIAPSIS":"546.102","MEAN_ANOMALY":"296.7845","ELEMENT_SET_NO":"999"},{"OBJECT_ID":"2021-021AQ","CENTER_NAME":"EARTH","MEAN_ELEMENT_THEORY":"SGP4","DECAY_DATE":null,"MEAN_MOTION":"15.06378237","LAUNCH_DATE":"2021-03-14","INCLINATION":"53.0540","BSTAR":"-0.00038698000000","SEMIMAJOR_AXIS":"6925.415","NORAD_CAT_ID":"47898","CLASSIFICATION_TYPE":"U","REF_FRAME":"TEME","GP_ID":"195443778","MEAN_ANOMALY":"282.0075","ELEMENT_SET_NO":"999","TIME_SYSTEM":"UTC","PERIAPSIS":"546.283","ECCENTRICITY":"0.00014400","RCS_SIZE":"LARGE","RA_OF_ASC_NODE":"129.7581","FILE":"3293822","OBJECT_NAME":"STARLINK-2358","SITE":"AFETR","MEAN_MOTION_DOT":"-0.00006037","OBJECT_TYPE":"PAYLOAD","APOAPSIS":"548.278","EPOCH":"2022-02-06T15:02:55.203648","TLE_LINE2":"2 47898  53.0540 129.7581 0001440  78.1075 282.0075 15.06378237 51254","EPHEMERIS_TYPE":"0","REV_AT_EPOCH":"5125","MEAN_MOTION_DDOT":"0.0000000000000","TLE_LINE1":"1 47898U 21021AQ  22037.62702782 -.00006037  00000-0 -38698-3 0  9995","COUNTRY_CODE":"US","ARG_OF_PERICENTER":"78.1075","PERIOD":"95.594"},{"PERIOD":"95.594","ARG_OF_PERICENTER":"72.6052","COUNTRY_CODE":"US","TLE_LINE1":"1 47899U 21021AR  22037.69062196 -.00004384  00000-0 -27576-3 0  9997","MEAN_MOTION_DDOT":"0.0000000000000","REV_AT_EPOCH":"5146","EPHEMERIS_TYPE":"0","TLE_LINE2":"2 47899  53.0554 119.4739 0001593  72.6052 287.5111 15.06375529 51469","EPOCH":"2022-02-06T16:34:29.737344","APOAPSIS":"548.392","OBJECT_TYPE":"PAYLOAD","SITE":"AFETR","OBJECT_NAME":"STARLINK-2359","MEAN_MOTION_DOT":"-0.00004384","FILE":"3293822","RA_OF_ASC_NODE":"119.4739","RCS_SIZE":"LARGE","ECCENTRICITY":"0.00015930","PERIAPSIS":"546.185","TIME_SYSTEM":"UTC","ELEMENT_SET_NO":"999","MEAN_ANOMALY":"287.5111","REF_FRAME":"TEME","GP_ID":"195443529","CLASSIFICATION_TYPE":"U","NORAD_CAT_ID":"47899","SEMIMAJOR_AXIS":"6925.424","BSTAR":"-0.00027576000000","LAUNCH_DATE":"2021-03-14","INCLINATION":"53.0554","MEAN_MOTION":"15.06375529","DECAY_DATE":null,"OBJECT_ID":"2021-021AR","CENTER_NAME":"EARTH","MEAN_ELEMENT_THEORY":"SGP4"},{"ECCENTRICITY":"0.00014400","RCS_SIZE":"LARGE","RA_OF_ASC_NODE":"129.3625","FILE":"3293822","OBJECT_NAME":"STARLINK-2360","SITE":"AFETR","MEAN_MOTION_DOT":"-0.00000869","OBJECT_TYPE":"PAYLOAD","APOAPSIS":"548.258","EPHEMERIS_TYPE":"0","TLE_LINE2":"2 47900  53.0535 129.3625 0001440  78.7128 281.4023 15.06384683 51328","EPOCH":"2022-02-06T17:08:58.308864","MEAN_MOTION_DDOT":"0.0000000000000","REV_AT_EPOCH":"5132","COUNTRY_CODE":"US","TLE_LINE1":"1 47900U 21021AS  22037.71456376 -.00000869  00000-0 -39469-4 0  9999","ARG_OF_PERICENTER":"78.7128","PERIOD":"95.593","MEAN_ELEMENT_THEORY":"SGP4","OBJECT_ID":"2021-021AS","CENTER_NAME":"EARTH","DECAY_DATE":null,"LAUNCH_DATE":"2021-03-14","INCLINATION":"53.0535","BSTAR":"-0.00003946900000","MEAN_MOTION":"15.06384683","NORAD_CAT_ID":"47900","SEMIMAJOR_AXIS":"6925.396","REF_FRAME":"TEME","GP_ID":"195442277","CLASSIFICATION_TYPE":"U","MEAN_ANOMALY":"281.4023","ELEMENT_SET_NO":"999","TIME_SYSTEM":"UTC","PERIAPSIS":"546.263"},{"OBJECT_ID":"2021-021AT","CENTER_NAME":"EARTH","MEAN_ELEMENT_THEORY":"SGP4","DECAY_DATE":null,"LAUNCH_DATE":"2021-03-14","BSTAR":"-0.00003735900000","INCLINATION":"53.0553","MEAN_MOTION":"15.06385354","NORAD_CAT_ID":"47901","SEMIMAJOR_AXIS":"6925.393","GP_ID":"195411910","REF_FRAME":"TEME","CLASSIFICATION_TYPE":"U","MEAN_ANOMALY":"279.9077","ELEMENT_SET_NO":"999","PERIAPSIS":"546.306","TIME_SYSTEM":"UTC","ECCENTRICITY":"0.00013760","RCS_SIZE":"LARGE","RA_OF_ASC_NODE":"120.1406","FILE":"3293555","OBJECT_NAME":"STARLINK-2361","SITE":"AFETR","MEAN_MOTION_DOT":"-0.00000838","OBJECT_TYPE":"PAYLOAD","APOAPSIS":"548.211","EPHEMERIS_TYPE":"0","TLE_LINE2":"2 47901  53.0553 120.1406 0001376  80.2068 279.9077 15.06385354 51422","EPOCH":"2022-02-06T12:55:30.762336","MEAN_MOTION_DDOT":"0.0000000000000","REV_AT_EPOCH":"5142","COUNTRY_CODE":"US","TLE_LINE1":"1 47901U 21021AT  22037.53855049 -.00000838  00000-0 -37359-4 0  9992","PERIOD":"95.593","ARG_OF_PERICENTER":"80.2068"},{"MEAN_ELEMENT_THEORY":"SGP4","OBJECT_ID":"2021-021AU","CENTER_NAME":"EARTH","MEAN_MOTION":"15.06386213","LAUNCH_DATE":"2021-03-14","INCLINATION":"53.0535","BSTAR":"-0.00011509000000","DECAY_DATE":null,"CLASSIFICATION_TYPE":"U","GP_ID":"195443279","REF_FRAME":"TEME","SEMIMAJOR_AXIS":"6925.391","NORAD_CAT_ID":"47902","PERIAPSIS":"546.270","TIME_SYSTEM":"UTC","ELEMENT_SET_NO":"999","MEAN_ANOMALY":"278.3716","ECCENTRICITY":"0.00014230","OBJECT_NAME":"STARLINK-2362","SITE":"AFETR","MEAN_MOTION_DOT":"-0.00001995","FILE":"3293822","RA_OF_ASC_NODE":"138.9784","RCS_SIZE":"LARGE","EPOCH":"2022-02-06T19:05:45.940704","TLE_LINE2":"2 47902  53.0535 138.9784 0001423  81.7434 278.3716 15.06386213 51298","EPHEMERIS_TYPE":"0","APOAPSIS":"548.241","OBJECT_TYPE":"PAYLOAD","ARG_OF_PERICENTER":"81.7434","PERIOD":"95.593","COUNTRY_CODE":"US","TLE_LINE1":"1 47902U 21021AU  22037.79567061 -.00001995  00000-0 -11509-3 0  9998","REV_AT_EPOCH":"5129","MEAN_MOTION_DDOT":"0.0000000000000"}];
